NORAD_CAT_ID,OBJECT_NAME,OBJECT_TYPE,EPOCH,MEAN_MOTION,ECCENTRICITY,INCLINATION,RA_OF_ASC_NODE,ARG_OF_PERICENTER,MEAN_ANOMALY,BSTAR,MEAN_MOTION_DOT,MEAN_MOTION_DDOT,TLE_LINE0,TLE_LINE1,TLE_LINE2,SEMIMAJOR_AXIS,PERIOD,APOGEE,PERIGEE,DECAYED
53818.0,STARLINK-4749,PAYLOAD,2023-01-25 06:24:52,15.08847714,0.000121,53.2185,19.4406,87.8491,272.264,0.00038854,5.902e-05,0.0,0 STARLINK-4749,1 53818U 22114A   23025.26726982  .00005902  00000-0  38854-3 0  9996,2 53818  53.2185  19.4406 0001210  87.8491 272.2640 15.08847714 20275,6917.857,95.437,540.559,538.885,0.0
53818.0,STARLINK-4749,PAYLOAD,2023-01-25 09:35:38,15.08849602,0.0001199999999999,53.2185,18.8458,89.40700000000001,270.706,0.00053071,8.171e-05,0.0,0 STARLINK-4749,1 53818U 22114A   23025.39974948  .00008171  00000-0  53071-3 0  9996,2 53818  53.2185  18.8458 0001200  89.4070 270.7060 15.08849602 20935,6917.851,95.437,540.5459999999999,538.886,0.0
53818.0,STARLINK-4749,PAYLOAD,2023-01-25 15:57:11,15.08823804,0.0001995,53.2189,17.6556,93.1707,266.9513,-3.9525e-05,-9.17e-06,0.0,0 STARLINK-4749,1 53818U 22114A   23025.66471782 -.00000917  00000-0 -39525-4 0  9995,2 53818  53.2189  17.6556 0001995  93.1707 266.9513 15.08823804 20335,6917.93,95.439,541.175,538.415,0.0
53818.0,STARLINK-4749,PAYLOAD,2023-01-26 03:04:54,15.08825512,0.0001155,53.2199,15.5764,94.4195,265.6929,0.0020459,0.0003241,0.0,0 STARLINK-4749,1 53818U 22114A   23026.12840802  .00032410  00000-0  20459-2 0  9995,2 53818  53.2199  15.5764 0001155  94.4195 265.6929 15.08825512 21041,6917.925,95.438,540.589,538.991,0.0
53818.0,STARLINK-4749,PAYLOAD,2023-01-27 06:06:26,15.08887937,0.0001224,53.2194,10.5216,94.4967,265.6165,0.0018769,0.00029748,0.0,0 STARLINK-4749,1 53818U 22114A   23027.25447639  .00029748  00000-0  18769-2 0  9992,2 53818  53.2194  10.5216 0001224  94.4967 265.6165 15.08887937 20575,6917.734,95.435,540.446,538.752,0.0
53818.0,STARLINK-4749,PAYLOAD,2023-01-28 04:21:50,15.08846896,9.3e-05,53.2191,6.3581,71.5394,288.5699,0.0012175999999999,0.00019147,0.0,0 STARLINK-4749,1 53818U 22114A   23028.18183244  .00019147  00000-0  12176-2 0  9992,2 53818  53.2191   6.3581 0000930  71.5394 288.5699 15.08846896 20714,6917.859,95.437,540.368,539.081,0.0
53818.0,STARLINK-4749,PAYLOAD,2023-01-28 07:32:36,15.08850596,9.71e-05,53.2189,5.7636,74.9127,285.1972,0.0018,0.00028483,0.0,0 STARLINK-4749,1 53818U 22114A   23028.31431279  .00028483  00000-0  18000-2 0  9996,2 53818  53.2189   5.7636 0000971  74.9127 285.1972 15.08850596 21373,6917.848,95.437,540.385,539.041,0.0
53818.0,STARLINK-4749,PAYLOAD,2023-01-28 17:04:55,15.08834796,0.0001299,53.2186,3.9804,119.863,240.2491,0.0018735,0.0002965,0.0,0 STARLINK-4749,1 53818U 22114A   23028.71175479  .00029650  00000-0  18735-2 0  9999,2 53818  53.2186   3.9804 0001299 119.8630 240.2491 15.08834796 20796,6917.896,95.438,540.66,538.863,0.0
53818.0,STARLINK-4749,PAYLOAD,2023-01-29 05:48:00,15.08843274,9.89e-05,53.218,1.6017,85.8573,274.2532,0.0010253,0.00016069,0.0,0 STARLINK-4749,1 53818U 22114A   23029.24167691  .00016069  00000-0  10253-2 0  9992,2 53818  53.2180   1.6017 0000989  85.8573 274.2532 15.08843274 20877,6917.87,95.437,540.42,539.051,0.0
53818.0,STARLINK-4749,PAYLOAD,2023-01-29 21:41:52,15.08844972,0.0001107,53.218,358.6287,79.0798,281.0318,0.00041714,6.358e-05,0.0,0 STARLINK-4749,1 53818U 22114A   23029.90407642  .00006358  00000-0  41714-3 0  9995,2 53818  53.2180 358.6287 0001107  79.0798 281.0318 15.08844972 20973,6917.865,95.437,540.496,538.964,0.0
53818.0,STARLINK-4749,PAYLOAD,2023-01-30 07:14:10,15.08853942,0.000103,53.2183,356.8429,87.4455,272.6655,0.00058672,9.066e-05,0.0,0 STARLINK-4749,1 53818U 22114A   23030.30151332  .00009066  00000-0  58672-3 0  9993,2 53818  53.2183 356.8429 0001030  87.4455 272.6655 15.08853942 21677,6917.838,95.437,540.415,538.99,0.0
53818.0,STARLINK-4749,PAYLOAD,2023-01-30 21:32:39,15.08839948,0.0001384,53.221,354.1737,42.6887,317.4213,0.00011065,1.474e-05,0.0,0 STARLINK-4749,1 53818U 22114A   23030.89767767  .00001474  00000-0  11065-3 0  9992,2 53818  53.2210 354.1737 0001384  42.6887 317.4213 15.08839948 21763,6917.881,95.438,540.703,538.788,0.0
53818.0,STARLINK-4749,PAYLOAD,2023-01-30 23:08:02,15.08837443,0.000139,53.2202,353.8756,42.3511,317.7588,4.9328e-05,4.97e-06,0.0,0 STARLINK-4749,1 53818U 22114A   23030.96391811  .00000497  00000-0  49328-4 0  9991,2 53818  53.2202 353.8756 0001390  42.3511 317.7588 15.08837443 21136,6917.888,95.438,540.715,538.792,0.0
53818.0,STARLINK-4749,PAYLOAD,2023-01-31 07:04:57,15.08854218,0.0001147,53.2188,352.3831,83.4799,276.6324,0.00031526,4.735e-05,0.0,0 STARLINK-4749,1 53818U 22114A   23031.29511072  .00004735  00000-0  31526-3 0  9990,2 53818  53.2188 352.3831 0001147  83.4799 276.6324 15.08854218 21186,6917.837,95.437,540.495,538.908,0.0
53818.0,STARLINK-4749,PAYLOAD,2023-02-01 03:44:58,15.08855488,0.0001144,53.2189,348.5176,92.9055,267.2068,0.0003932,5.978e-05,0.0,0 STARLINK-4749,1 53818U 22114A   23032.15622955  .00005978  00000-0  39320-3 0  9999,2 53818  53.2189 348.5176 0001144  92.9055 267.2068 15.08855488 21319,6917.833,95.437,540.489,538.907,0.0
53818.0,STARLINK-4749,PAYLOAD,2023-02-01 06:55:44,15.08859134,0.0001244,53.2188,347.9223,95.0162,265.0972,0.00059021,9.123e-05,0.0,0 STARLINK-4749,1 53818U 22114A   23032.28870832  .00009123  00000-0  59021-3 0  9998,2 53818  53.2188 347.9223 0001244  95.0162 265.0972 15.08859134 21972,6917.822,95.436,540.547,538.826,0.0
53818.0,STARLINK-4749,PAYLOAD,2023-02-02 03:35:45,15.08834682,0.0001218,53.2191,344.0568,81.3102,278.8028,-2.4471e-05,-6.77e-06,0.0,0 STARLINK-4749,1 53818U 22114A   23033.14983766 -.00000677  00000-0 -24471-4 0  9994,2 53818  53.2191 344.0568 0001218  81.3102 278.8028 15.08834682 21468,6917.897,95.438,540.604,538.919,0.0
53818.0,STARLINK-4749,PAYLOAD,2023-02-02 06:46:32,15.08838529,0.0001261,53.2193,343.4614,80.6693,279.4441,5.5178e-05,5.9e-06,0.0,0 STARLINK-4749,1 53818U 22114A   23033.28231754  .00000590  00000-0  55178-4 0  9992,2 53818  53.2193 343.4614 0001261  80.6693 279.4441 15.08838529 22124,6917.885,95.438,540.622,538.878,0.0
53818.0,STARLINK-4749,PAYLOAD,2023-02-02 22:40:23,15.08852571,0.0001225,53.2188,340.4891,86.4163,273.6969,0.00065641,0.00010178,0.0,0 STARLINK-4749,1 53818U 22114A   23033.94471516  .00010178  00000-0  65641-3 0  9995,2 53818  53.2188 340.4891 0001225  86.4163 273.6969 15.08852571 21581,6917.842,95.437,540.554,538.86,0.0
53818.0,STARLINK-4749,PAYLOAD,2023-02-03 05:01:55,15.08868525,0.0001214,53.2188,339.2997,85.2254,274.8877,0.0010845,0.00017027,0.0,0 STARLINK-4749,1 53818U 22114A   23034.20967069  .00017027  00000-0  10845-2 0  9993,2 53818  53.2188 339.2997 0001214  85.2254 274.8877 15.08868525 21622,6917.793,95.436,540.498,538.818,0.0
53818.0,STARLINK-4749,PAYLOAD,2023-02-04 04:52:42,15.08854573,0.0001325,53.2187,334.8396,94.3045,265.8099,0.00072505,0.00011275,0.0,0 STARLINK-4749,1 53818U 22114A   23035.20327248  .00011275  00000-0  72505-3 0  9994,2 53818  53.2187 334.8396 0001325  94.3045 265.8099 15.08854573 21777,6917.836,95.437,540.617,538.784,0.0
53818.0,STARLINK-4749,PAYLOAD,2023-02-05 04:43:30,15.08844997,0.0001302,53.2191,330.3793,84.1771,275.9369,0.00073657,0.00011456,0.0,0 STARLINK-4749,1 53818U 22114A   23036.19687958  .00011456  00000-0  73657-3 0  9990,2 53818  53.2191 330.3793 0001302  84.1771 275.9369 15.08844997 21920,6917.865,95.437,540.631,538.829,0.0
53818.0,STARLINK-4749,PAYLOAD,2023-02-06 04:34:17,15.08848959,0.0001402,53.2189,325.9177,91.9268,268.1885,0.00048534,7.447e-05,0.0,0 STARLINK-4749,1 53818U 22114A   23037.19048123  .00007447  00000-0  48534-3 0  9997,2 53818  53.2189 325.9177 0001402  91.9268 268.1885 15.08848959 22077,6917.853,95.437,540.688,538.748,0.0
53818.0,STARLINK-4749,PAYLOAD,2023-02-07 04:25:03,15.08863826,0.0001625,53.2206,321.4544,97.3812,262.7365,0.00060382,9.341e-05,0.0,0 STARLINK-4749,1 53818U 22114A   23038.18407388  .00009341  00000-0  60382-3 0  9999,2 53818  53.2206 321.4544 0001625  97.3812 262.7365 15.08863826 22868,6917.808,95.436,540.797,538.548,0.0
53818.0,STARLINK-4749,PAYLOAD,2023-02-07 21:54:18,15.0884974,0.0001352,53.2189,318.1869,88.1872,271.9275,0.00014145,1.965e-05,0.0,0 STARLINK-4749,1 53818U 22114A   23038.91271490  .00001965  00000-0  14145-3 0  9993,2 53818  53.2189 318.1869 0001352  88.1872 271.9275 15.08849740 22975,6917.851,95.437,540.651,538.78,0.0
53818.0,STARLINK-4749,PAYLOAD,2023-02-07 23:29:41,15.08850299,0.0001462,53.2189,317.8896,89.0106,271.1054,0.00014483,2.018e-05,0.0,0 STARLINK-4749,1 53818U 22114A   23038.97895429  .00002018  00000-0  14483-3 0  9998,2 53818  53.2189 317.8896 0001462  89.0106 271.1054 15.08850299 22342,6917.849,95.437,540.725,538.703,0.0
53818.0,STARLINK-4749,PAYLOAD,2023-02-08 16:58:55,15.08847509,0.0001401,53.2199,314.6158,163.8246,196.2791,0.00018496,2.658e-05,0.0,0 STARLINK-4749,1 53818U 22114A   23039.70759194  .00002658  00000-0  18496-3 0  9996,2 53818  53.2199 314.6158 0001401 163.8246 196.2791 15.08847509 22455,6917.857,95.437,540.692,538.753,0.0
53818.0,STARLINK-4749,PAYLOAD,2023-02-08 21:45:05,15.0883795,0.0001057,53.2184,313.7294,112.0588,248.0516,0.00016508,2.34e-05,0.0,0 STARLINK-4749,1 53818U 22114A   23039.90631528  .00002340  00000-0  16508-3 0  9998,2 53818  53.2184 313.7294 0001057 112.0588 248.0516 15.08837950 23127,6917.887,95.438,540.483,539.02,0.0
53818.0,STARLINK-4749,PAYLOAD,2023-02-09 04:06:37,15.08848313,9.71e-05,53.2189,312.5378,91.4555,268.6549,0.00061066,9.446e-05,0.0,0 STARLINK-4749,1 53818U 22114A   23040.17127179  .00009446  00000-0  61066-3 0  9994,2 53818  53.2189 312.5378 0000971  91.4555 268.6549 15.08848313 23163,6917.855,95.437,540.392,539.048,0.0
53818.0,STARLINK-4749,PAYLOAD,2023-02-10 00:46:39,15.08841189,8.61e-05,53.218,308.6737,70.8915,289.217,0.00058584,9.048e-05,0.0,0 STARLINK-4749,1 53818U 22114A   23041.03240229  .00009048  00000-0  58584-3 0  9991,2 53818  53.2180 308.6737 0000861  70.8915 289.2170 15.08841189 22654,6917.877,95.437,540.337,539.146,0.0
